{
  "norad_id": 59407,
  "name": "STARLINK-31387",
  "history": [
    {
      "epoch": "2026-03-28T22:02:42.368352Z",
      "apogee_km": 483.5419102964879,
      "perigee_km": 482.46841599364234,
      "latitude_deg": -1.2633592821772274e-05,
      "longitude_deg": 150.82335561193315,
      "height_km": 483.07077852942643,
      "semi_major_axis_km": 6861.142163145065,
      "eccentricity": 7.823e-05,
      "inclination_deg": 43.0002,
      "raan_deg": 307.832,
      "arg_perigee_deg": 237.3493,
      "mean_anomaly_deg": 122.7283,
      "mean_motion_rev_day": 15.27594672
    },
    {
      "epoch": "2026-03-28T23:36:51.881184Z",
      "apogee_km": 483.96458869531034,
      "perigee_km": 482.0791422390794,
      "latitude_deg": 1.054053173043859e-05,
      "longitude_deg": 126.8505942635824,
      "height_km": 482.7124229184083,
      "semi_major_axis_km": 6861.158865467194,
      "eccentricity": 0.0001374,
      "inclination_deg": 43.0031,
      "raan_deg": 307.4633,
      "arg_perigee_deg": 275.263,
      "mean_anomaly_deg": 84.8065,
      "mean_motion_rev_day": 15.27589094
    },
    {
      "epoch": "2026-03-29T23:09:13.923072Z",
      "apogee_km": 483.6005408565852,
      "perigee_km": 482.540895936555,
      "latitude_deg": 5.189311364595882e-05,
      "longitude_deg": 127.25336653395365,
      "height_km": 482.8216815455579,
      "semi_major_axis_km": 6861.207718396569,
      "eccentricity": 7.722e-05,
      "inclination_deg": 43.0026,
      "raan_deg": 301.9246,
      "arg_perigee_deg": 272.7564,
      "mean_anomaly_deg": 87.32,
      "mean_motion_rev_day": 15.27572779
    },
    {
      "epoch": "2026-03-30T14:50:47.792544Z",
      "apogee_km": 483.91571689431385,
      "perigee_km": 482.2129039530937,
      "latitude_deg": -4.149129692316909e-05,
      "longitude_deg": -112.47673310744815,
      "height_km": 482.6919345114176,
      "semi_major_axis_km": 6861.201310423704,
      "eccentricity": 0.00012409,
      "inclination_deg": 43.0023,
      "raan_deg": 298.2302,
      "arg_perigee_deg": 280.0933,
      "mean_anomaly_deg": 79.9778,
      "mean_motion_rev_day": 15.27574919
    },
    {
      "epoch": "2026-03-30T21:07:24.818304Z",
      "apogee_km": 483.83186606358413,
      "perigee_km": 482.2561272358935,
      "latitude_deg": 1.1263853770035867e-05,
      "longitude_deg": 151.63506420818044,
      "height_km": 482.690765473124,
      "semi_major_axis_km": 6861.1809966497385,
      "eccentricity": 0.00011483,
      "inclination_deg": 43.0029,
      "raan_deg": 296.754,
      "arg_perigee_deg": 279.5008,
      "mean_anomaly_deg": 80.5714,
      "mean_motion_rev_day": 15.27581703
    },
    {
      "epoch": "2026-03-31T12:48:59.029056Z",
      "apogee_km": 483.87779496597796,
      "perigee_km": 482.2691155626362,
      "latitude_deg": 3.165522332933492e-05,
      "longitude_deg": -88.09613984290739,
      "height_km": 482.79659806171077,
      "semi_major_axis_km": 6861.210455264307,
      "eccentricity": 0.00011723,
      "inclination_deg": 42.9998,
      "raan_deg": 293.0598,
      "arg_perigee_deg": 273.8029,
      "mean_anomaly_deg": 86.2689,
      "mean_motion_rev_day": 15.27571865
    },
    {
      "epoch": "2026-04-01T20:12:06.893280Z",
      "apogee_km": 483.8731471828469,
      "perigee_km": 482.24292724200404,
      "latitude_deg": -4.0421169983231346e-05,
      "longitude_deg": 152.44955997300767,
      "height_km": 482.8594186125387,
      "semi_major_axis_km": 6861.195037212425,
      "eccentricity": 0.0001188,
      "inclination_deg": 43.004,
      "raan_deg": 285.6773,
      "arg_perigee_deg": 268.2838,
      "mean_anomaly_deg": 91.7877,
      "mean_motion_rev_day": 15.27577014
    },
    {
      "epoch": "2026-04-02T19:44:26.166912Z",
      "apogee_km": 484.00569563012414,
      "perigee_km": 481.99949841195485,
      "latitude_deg": 3.893686696595309e-06,
      "longitude_deg": 152.86130166558178,
      "height_km": 482.5942215137649,
      "semi_major_axis_km": 6861.139597021039,
      "eccentricity": 0.0001462,
      "inclination_deg": 43.0017,
      "raan_deg": 280.136,
      "arg_perigee_deg": 280.6465,
      "mean_anomaly_deg": 79.4222,
      "mean_motion_rev_day": 15.27595529
    }
  ]
}